STARLINK-37350          
1 68750U 26082Y   26113.09774793 -.00576542  00000+0 -23053-2 0  9998
2 68750  97.2873 335.2201 0000179  63.1621 296.9669 15.87789547  1117
