{
  "norad_id": 68750,
  "name": "STARLINK-37350",
  "history": [
    {
      "epoch": "2026-04-23T02:20:45.421152Z",
      "apogee_km": 308.60131014516173,
      "perigee_km": 308.3617954686006,
      "latitude_deg": -1.791790172516811e-05,
      "longitude_deg": 88.88098213367351,
      "height_km": 311.6123529652789,
      "semi_major_axis_km": 6686.618552806881,
      "eccentricity": 1.791e-05,
      "inclination_deg": 97.2873,
      "raan_deg": 335.2201,
      "arg_perigee_deg": 63.1621,
      "mean_anomaly_deg": 296.9669,
      "mean_motion_rev_day": 15.87789547
    }
  ]
}